{
  "norad_id": 28874,
  "name": "NAVSTAR 57 (USA 183)",
  "history": [
    {
      "epoch": "2026-03-28T08:49:44.273856Z",
      "apogee_km": 20522.004341633376,
      "perigee_km": 19841.067447956622,
      "latitude_deg": -18.679412759062995,
      "longitude_deg": 151.9322527188415,
      "height_km": 20197.108000894124,
      "semi_major_axis_km": 26559.672894795,
      "eccentricity": 0.012819,
      "inclination_deg": 54.9447,
      "raan_deg": 276.4371,
      "arg_perigee_deg": 295.6323,
      "mean_anomaly_deg": 268.7932,
      "mean_motion_rev_day": 2.00571249
    }
  ]
}